[{"OBJECT_NAME":"STARLINK-5286","OBJECT_ID":"2023-010AB","EPOCH":"2026-03-09T22:07:20.643744","MEAN_MOTION":14.98328114,"ECCENTRICITY":0.00029197,"INCLINATION":70.0004,"RA_OF_ASC_NODE":43.7492,"ARG_OF_PERICENTER":268.8951,"MEAN_ANOMALY":91.1874,"EPHEMERIS_TYPE":0,"CLASSIFICATION_TYPE":"U","NORAD_CAT_ID":55294,"ELEMENT_SET_NO":999,"REV_AT_EPOCH":17281,"BSTAR":8.547099e-6,"MEAN_MOTION_DOT":9.0e-8,"MEAN_MOTION_DDOT":0},{"OBJECT_NAME":"ICEYE-X57","OBJECT_ID":"2025-135BC","EPOCH":"2026-03-09T22:18:00.647424","MEAN_MOTION":15.00870088,"ECCENTRICITY":0.00021914,"INCLINATION":97.7623,"RA_OF_ASC_NODE":185.2979,"ARG_OF_PERICENTER":76.2741,"MEAN_ANOMALY":283.8727,"EPHEMERIS_TYPE":0,"CLASSIFICATION_TYPE":"U","NORAD_CAT_ID":64578,"ELEMENT_SET_NO":999,"REV_AT_EPOCH":3913,"BSTAR":0.00060837081,"MEAN_MOTION_DOT":7.683e-5,"MEAN_MOTION_DDOT":0}]
